[{"OBJECT_NAME":"STARLINK-34540","OBJECT_ID":"2025-211F","EPOCH":"2026-03-09T17:04:06.544704","MEAN_MOTION":15.05647668,"ECCENTRICITY":0.00019532,"INCLINATION":97.6023,"RA_OF_ASC_NODE":114.0635,"ARG_OF_PERICENTER":112.0865,"MEAN_ANOMALY":248.0569,"EPHEMERIS_TYPE":0,"CLASSIFICATION_TYPE":"U","NORAD_CAT_ID":65657,"ELEMENT_SET_NO":999,"REV_AT_EPOCH":2704,"BSTAR":7.5632757e-5,"MEAN_MOTION_DOT":1.031e-5,"MEAN_MOTION_DDOT":0},{"OBJECT_NAME":"D-SAT","OBJECT_ID":"2017-036AF","EPOCH":"2026-03-09T22:00:14.910336","MEAN_MOTION":15.15529522,"ECCENTRICITY":0.00852401,"INCLINATION":97.5487,"RA_OF_ASC_NODE":48.252,"ARG_OF_PERICENTER":144.4633,"MEAN_ANOMALY":216.2319,"EPHEMERIS_TYPE":0,"CLASSIFICATION_TYPE":"U","NORAD_CAT_ID":42794,"ELEMENT_SET_NO":999,"REV_AT_EPOCH":47581,"BSTAR":0.00038655305,"MEAN_MOTION_DOT":7.964e-5,"MEAN_MOTION_DDOT":0}]
